[{"OBJECT_NAME":"STARLINK-34644","OBJECT_ID":"2025-150Y","EPOCH":"2026-02-11T20:25:38.696448","MEAN_MOTION":14.98328774,"ECCENTRICITY":0.00026759,"INCLINATION":70.0015,"RA_OF_ASC_NODE":199.6616,"ARG_OF_PERICENTER":271.6462,"MEAN_ANOMALY":88.4391,"EPHEMERIS_TYPE":0,"CLASSIFICATION_TYPE":"U","NORAD_CAT_ID":64812,"ELEMENT_SET_NO":999,"REV_AT_EPOCH":3264,"BSTAR":0.00049944996,"MEAN_MOTION_DOT":5.871e-5,"MEAN_MOTION_DDOT":0},{"OBJECT_NAME":"STARLINK-34685","OBJECT_ID":"2025-150Z","EPOCH":"2026-02-11T20:49:40.842912","MEAN_MOTION":14.98354199,"ECCENTRICITY":0.00028932,"INCLINATION":70.0015,"RA_OF_ASC_NODE":199.7629,"ARG_OF_PERICENTER":269.9827,"MEAN_ANOMALY":90.1001,"EPHEMERIS_TYPE":0,"CLASSIFICATION_TYPE":"U","NORAD_CAT_ID":64813,"ELEMENT_SET_NO":999,"REV_AT_EPOCH":3264,"BSTAR":0.00046501149,"MEAN_MOTION_DOT":5.463e-5,"MEAN_MOTION_DDOT":0},{"OBJECT_NAME":"STARLINK-34668","OBJECT_ID":"2025-150AA","EPOCH":"2026-02-11T13:12:44.585856","MEAN_MOTION":14.98727601,"ECCENTRICITY":0.0004181,"INCLINATION":70.0024,"RA_OF_ASC_NODE":200.2618,"ARG_OF_PERICENTER":255.9219,"MEAN_ANOMALY":104.1476,"EPHEMERIS_TYPE":0,"CLASSIFICATION_TYPE":"U","NORAD_CAT_ID":64814,"ELEMENT_SET_NO":999,"REV_AT_EPOCH":3260,"BSTAR":0.010589829,"MEAN_MOTION_DOT":0.00129972,"MEAN_MOTION_DDOT":0},{"OBJECT_NAME":"STARLINK-34667","OBJECT_ID":"2025-150AB","EPOCH":"2026-02-11T18:25:26.663808","MEAN_MOTION":14.98330605,"ECCENTRICITY":0.00028575,"INCLINATION":70.0016,"RA_OF_ASC_NODE":199.814,"ARG_OF_PERICENTER":269.508,"MEAN_ANOMALY":90.5751,"EPHEMERIS_TYPE":0,"CLASSIFICATION_TYPE":"U","NORAD_CAT_ID":64815,"ELEMENT_SET_NO":999,"REV_AT_EPOCH":3263,"BSTAR":-4.11113e-6,"MEAN_MOTION_DOT":-1.42e-6,"MEAN_MOTION_DDOT":0},{"OBJECT_NAME":"STARLINK-34723","OBJECT_ID":"2025-152A","EPOCH":"2026-02-11T13:47:13.348320","MEAN_MOTION":15.05650524,"ECCENTRICITY":0.00018749,"INCLINATION":97.6028,"RA_OF_ASC_NODE":259.7035,"ARG_OF_PERICENTER":89.7795,"MEAN_ANOMALY":270.3646,"EPHEMERIS_TYPE":0,"CLASSIFICATION_TYPE":"U","NORAD_CAT_ID":64842,"ELEMENT_SET_NO":999,"REV_AT_EPOCH":3148,"BSTAR":0.00029399808,"MEAN_MOTION_DOT":4.184e-5,"MEAN_MOTION_DDOT":0},{"OBJECT_NAME":"STARLINK-34725","OBJECT_ID":"2025-152B","EPOCH":"2026-02-11T13:23:18.081888","MEAN_MOTION":15.05655538,"ECCENTRICITY":0.00017393,"INCLINATION":97.6016,"RA_OF_ASC_NODE":259.7303,"ARG_OF_PERICENTER":62.109,"MEAN_ANOMALY":298.0313,"EPHEMERIS_TYPE":0,"CLASSIFICATION_TYPE":"U","NORAD_CAT_ID":64843,"ELEMENT_SET_NO":999,"REV_AT_EPOCH":3148,"BSTAR":0.00043919894,"MEAN_MOTION_DOT":6.283e-5,"MEAN_MOTION_DDOT":0},{"OBJECT_NAME":"STARLINK-34709","OBJECT_ID":"2025-152C","EPOCH":"2026-02-11T13:27:17.258688","MEAN_MOTION":15.05657779,"ECCENTRICITY":0.00011526,"INCLINATION":97.6018,"RA_OF_ASC_NODE":259.7215,"ARG_OF_PERICENTER":81.235,"MEAN_ANOMALY":278.9007,"EPHEMERIS_TYPE":0,"CLASSIFICATION_TYPE":"U","NORAD_CAT_ID":64844,"ELEMENT_SET_NO":999,"REV_AT_EPOCH":3148,"BSTAR":0.00044371881,"MEAN_MOTION_DOT":6.349e-5,"MEAN_MOTION_DDOT":0},{"OBJECT_NAME":"STARLINK-34706","OBJECT_ID":"2025-152D","EPOCH":"2026-02-11T13:43:14.381472","MEAN_MOTION":15.05651593,"ECCENTRICITY":0.00020483,"INCLINATION":97.6023,"RA_OF_ASC_NODE":259.7075,"ARG_OF_PERICENTER":90.3241,"MEAN_ANOMALY":269.8221,"EPHEMERIS_TYPE":0,"CLASSIFICATION_TYPE":"U","NORAD_CAT_ID":64845,"ELEMENT_SET_NO":999,"REV_AT_EPOCH":3148,"BSTAR":0.00039072226,"MEAN_MOTION_DOT":5.582e-5,"MEAN_MOTION_DDOT":0},{"OBJECT_NAME":"STARLINK-34736","OBJECT_ID":"2025-152E","EPOCH":"2026-02-11T22:25:38.129376","MEAN_MOTION":15.05641155,"ECCENTRICITY":0.00027008,"INCLINATION":97.6038,"RA_OF_ASC_NODE":260.1412,"ARG_OF_PERICENTER":73.6402,"MEAN_ANOMALY":286.5122,"EPHEMERIS_TYPE":0,"CLASSIFICATION_TYPE":"U","NORAD_CAT_ID":64846,"ELEMENT_SET_NO":999,"REV_AT_EPOCH":3154,"BSTAR":0.00090506643,"MEAN_MOTION_DOT":0.0001302,"MEAN_MOTION_DDOT":0},{"OBJECT_NAME":"STARLINK-34746","OBJECT_ID":"2025-152F","EPOCH":"2026-02-11T14:35:04.727040","MEAN_MOTION":15.05652258,"ECCENTRICITY":0.00020023,"INCLINATION":97.6039,"RA_OF_ASC_NODE":259.8146,"ARG_OF_PERICENTER":70.9195,"MEAN_ANOMALY":289.2249,"EPHEMERIS_TYPE":0,"CLASSIFICATION_TYPE":"U","NORAD_CAT_ID":64847,"ELEMENT_SET_NO":999,"REV_AT_EPOCH":3149,"BSTAR":0.00023812127,"MEAN_MOTION_DOT":3.377e-5,"MEAN_MOTION_DDOT":0},{"OBJECT_NAME":"STARLINK-34748","OBJECT_ID":"2025-152G","EPOCH":"2026-02-11T22:13:38.861472","MEAN_MOTION":15.05652205,"ECCENTRICITY":0.00023591,"INCLINATION":97.6036,"RA_OF_ASC_NODE":260.1592,"ARG_OF_PERICENTER":86.0796,"MEAN_ANOMALY":274.0701,"EPHEMERIS_TYPE":0,"CLASSIFICATION_TYPE":"U","NORAD_CAT_ID":64848,"ELEMENT_SET_NO":999,"REV_AT_EPOCH":3154,"BSTAR":0.00024817538,"MEAN_MOTION_DOT":3.522e-5,"MEAN_MOTION_DDOT":0},{"OBJECT_NAME":"STARLINK-34756","OBJECT_ID":"2025-152H","EPOCH":"2026-02-11T14:19:23.503584","MEAN_MOTION":15.01254581,"ECCENTRICITY":0.00026991,"INCLINATION":97.6023,"RA_OF_ASC_NODE":260.0046,"ARG_OF_PERICENTER":52.6371,"MEAN_ANOMALY":307.5098,"EPHEMERIS_TYPE":0,"CLASSIFICATION_TYPE":"U","NORAD_CAT_ID":64849,"ELEMENT_SET_NO":999,"REV_AT_EPOCH":3150,"BSTAR":0.00011983004,"MEAN_MOTION_DOT":1.481e-5,"MEAN_MOTION_DDOT":0},{"OBJECT_NAME":"STARLINK-34757","OBJECT_ID":"2025-152J","EPOCH":"2026-02-11T13:15:19.957248","MEAN_MOTION":15.05645865,"ECCENTRICITY":0.00016078,"INCLINATION":97.6022,"RA_OF_ASC_NODE":259.7315,"ARG_OF_PERICENTER":94.8884,"MEAN_ANOMALY":265.2526,"EPHEMERIS_TYPE":0,"CLASSIFICATION_TYPE":"U","NORAD_CAT_ID":64850,"ELEMENT_SET_NO":999,"REV_AT_EPOCH":3148,"BSTAR":0.00047469233,"MEAN_MOTION_DOT":6.794e-5,"MEAN_MOTION_DDOT":0},{"OBJECT_NAME":"STARLINK-34722","OBJECT_ID":"2025-152K","EPOCH":"2026-02-11T13:31:16.432032","MEAN_MOTION":15.05654029,"ECCENTRICITY":0.00020637,"INCLINATION":97.6008,"RA_OF_ASC_NODE":259.7155,"ARG_OF_PERICENTER":85.3416,"MEAN_ANOMALY":274.8046,"EPHEMERIS_TYPE":0,"CLASSIFICATION_TYPE":"U","NORAD_CAT_ID":64851,"ELEMENT_SET_NO":999,"REV_AT_EPOCH":3148,"BSTAR":0.00031102339,"MEAN_MOTION_DOT":4.43e-5,"MEAN_MOTION_DDOT":0},{"OBJECT_NAME":"STARLINK-34564","OBJECT_ID":"2025-152L","EPOCH":"2026-02-11T14:43:03.283680","MEAN_MOTION":15.05671786,"ECCENTRICITY":0.00017056,"INCLINATION":97.6028,"RA_OF_ASC_NODE":259.8065,"ARG_OF_PERICENTER":83.155,"MEAN_ANOMALY":276.9871,"EPHEMERIS_TYPE":0,"CLASSIFICATION_TYPE":"U","NORAD_CAT_ID":64852,"ELEMENT_SET_NO":999,"REV_AT_EPOCH":3149,"BSTAR":0.00041993152,"MEAN_MOTION_DOT":6.007e-5,"MEAN_MOTION_DDOT":0},{"OBJECT_NAME":"STARLINK-34676","OBJECT_ID":"2025-152M","EPOCH":"2026-02-11T21:33:45.670464","MEAN_MOTION":15.05651571,"ECCENTRICITY":0.00019369,"INCLINATION":97.6023,"RA_OF_ASC_NODE":260.0412,"ARG_OF_PERICENTER":74.1685,"MEAN_ANOMALY":285.9755,"EPHEMERIS_TYPE":0,"CLASSIFICATION_TYPE":"U","NORAD_CAT_ID":64853,"ELEMENT_SET_NO":999,"REV_AT_EPOCH":3153,"BSTAR":0.00017246063,"MEAN_MOTION_DOT":2.429e-5,"MEAN_MOTION_DDOT":0}]
