STARLINK-34644          
1 64812U 25150Y   26042.85114232  .00005871  00000+0  49945-3 0  9998
2 64812  70.0015 199.6616 0002675 271.6462  88.4391 14.98328774 32643
STARLINK-34685          
1 64813U 25150Z   26042.86783383  .00005463  00000+0  46501-3 0  9991
2 64813  70.0015 199.7629 0002893 269.9827  90.1001 14.98354199 32644
STARLINK-34668          
1 64814U 25150AA  26042.55051604  .00129972  00000+0  10590-1 0  9991
2 64814  70.0024 200.2618 0004181 255.9219 104.1476 14.98727601 32603
STARLINK-34667          
1 64815U 25150AB  26042.76766972 -.00000142  00000+0 -41111-5 0  9992
2 64815  70.0016 199.8140 0002857 269.5080  90.5751 14.98330605 32634
STARLINK-34723          
1 64842U 25152A   26042.57446005  .00004184  00000+0  29400-3 0  9998
2 64842  97.6028 259.7035 0001874  89.7795 270.3646 15.05650524 31481
STARLINK-34725          
1 64843U 25152B   26042.55784817  .00006283  00000+0  43920-3 0  9998
2 64843  97.6016 259.7303 0001739  62.1090 298.0313 15.05655538 31488
STARLINK-34709          
1 64844U 25152C   26042.56061642  .00006349  00000+0  44372-3 0  9999
2 64844  97.6018 259.7215 0001152  81.2350 278.9007 15.05657779 31489
STARLINK-34706          
1 64845U 25152D   26042.57169423  .00005582  00000+0  39072-3 0  9996
2 64845  97.6023 259.7075 0002048  90.3241 269.8221 15.05651593 31480
STARLINK-34736          
1 64846U 25152E   26042.93446909  .00013020  00000+0  90507-3 0  9990
2 64846  97.6038 260.1412 0002700  73.6402 286.5122 15.05641155 31542
STARLINK-34746          
1 64847U 25152F   26042.60769360  .00003377  00000+0  23812-3 0  9993
2 64847  97.6039 259.8146 0002002  70.9195 289.2249 15.05652258 31497
STARLINK-34748          
1 64848U 25152G   26042.92614423  .00003522  00000+0  24818-3 0  9997
2 64848  97.6036 260.1592 0002359  86.0796 274.0701 15.05652205 31548
STARLINK-34756          
1 64849U 25152H   26042.59679981  .00001481  00000+0  11983-3 0  9992
2 64849  97.6023 260.0046 0002699  52.6371 307.5098 15.01254581 31501
STARLINK-34757          
1 64850U 25152J   26042.55231432  .00006794  00000+0  47469-3 0  9995
2 64850  97.6022 259.7315 0001607  94.8884 265.2526 15.05645865 31487
STARLINK-34722          
1 64851U 25152K   26042.56338463  .00004430  00000+0  31102-3 0  9991
2 64851  97.6008 259.7155 0002063  85.3416 274.8046 15.05654029 31482
STARLINK-34564          
1 64852U 25152L   26042.61323245  .00006007  00000+0  41993-3 0  9991
2 64852  97.6028 259.8065 0001705  83.1550 276.9871 15.05671786 31492
STARLINK-34676          
1 64853U 25152M   26042.89844526  .00002429  00000+0  17246-3 0  9990
2 64853  97.6023 260.0412 0001936  74.1685 285.9755 15.05651571 31539
